{"type": "FeatureCollection", "features": [ {"type": "Feature", "properties": {"norad_id": 31931, "name": "FENGYUN 1C DEB", "group": "fengyun-1c-debris", "lat": 57.77213233999313, "lon": 128.35386962688878, "alt_km": 1373.5423789914603, "timestamp": "2025-12-10T21:43:22.372910+00:00", "meta": {"OBJECT_NAME": "FENGYUN 1C DEB", "OBJECT_ID": "1999-025CMG", "EPOCH": "2025-12-08T02:54:38.657664", "MEAN_MOTION": 13.42606691, "ECCENTRICITY": 0.04234013, "INCLINATION": 97.8131, "RA_OF_ASC_NODE": 293.6089, "ARG_OF_PERICENTER": 281.6721, "MEAN_ANOMALY": 73.7205, "EPHEMERIS_TYPE": 0, "CLASSIFICATION_TYPE": "U", "NORAD_CAT_ID": 31931, "ELEMENT_SET_NO": 999, "REV_AT_EPOCH": 65160, "BSTAR": 0.0018287919, "MEAN_MOTION_DOT": 1.733e-05, "MEAN_MOTION_DDOT": 0}, "tle": {"line1": "1 31931U 99025CMG 25342.12128076  .00001733  00000+0  18288-2 0  9997", "line2": "2 31931  97.8131 293.6089 0423401 281.6721  73.7205 13.42606691651606"}}, "geometry": {"type": "Point", "coordinates": [128.35386962688878, 57.77213233999313]}}, {"type": "Feature", "properties": {"norad_id": 31934, "name": "FENGYUN 1C DEB", "group": "fengyun-1c-debris", "lat": 44.42657447970097, "lon": 25.14387894798164, "alt_km": 566.9349142760038, "timestamp": "2025-12-10T21:43:22.372920+00:00", "meta": {"OBJECT_NAME": "FENGYUN 1C DEB", "OBJECT_ID": "1999-025CMK", "EPOCH": "2025-12-04T09:16:56.352576", "MEAN_MOTION": 15.05606214, "ECCENTRICITY": 0.0038121, "INCLINATION": 98.8816, "RA_OF_ASC_NODE": 26.4564, "ARG_OF_PERICENTER": 260.5868, "MEAN_ANOMALY": 99.1044, "EPHEMERIS_TYPE": 0, "CLASSIFICATION_TYPE": "U", "NORAD_CAT_ID": 31934, "ELEMENT_SET_NO": 999, "REV_AT_EPOCH": 60717, "BSTAR": 0.0071095, "MEAN_MOTION_DOT": 0.00105581, "MEAN_MOTION_DDOT": 0}, "tle": {"line1": "1 31934U 99025CMK 25338.38676334  .00105581  00000+0  71095-2 0  9999", "line2": "2 31934  98.8816  26.4564 0038121 260.5868  99.1044 15.05606214607177"}}, "geometry": {"type": "Point", "coordinates": [25.14387894798164, 44.42657447970097]}}, {"type": "Feature", "properties": {"norad_id": 31937, "name": "FENGYUN 1C DEB", "group": "fengyun-1c-debris", "lat": -80.30923541979391, "lon": 146.9637945341489, "alt_km": 543.621128930271, "timestamp": "2025-12-10T21:43:22.372931+00:00", "meta": {"OBJECT_NAME": "FENGYUN 1C DEB", "OBJECT_ID": "1999-025CMN", "EPOCH": "2025-12-06T23:52:27.149088", "MEAN_MOTION": 14.78022374, "ECCENTRICITY": 0.0162921, "INCLINATION": 99.2561, "RA_OF_ASC_NODE": 69.7316, "ARG_OF_PERICENTER": 315.3928, "MEAN_ANOMALY": 43.4262, "EPHEMERIS_TYPE": 0, "CLASSIFICATION_TYPE": "U", "NORAD_CAT_ID": 31937, "ELEMENT_SET_NO": 999, "REV_AT_EPOCH": 65984, "BSTAR": 0.0011794166, "MEAN_MOTION_DOT": 0.00010567, "MEAN_MOTION_DDOT": 0}, "tle": {"line1": "1 31937U 99025CMN 25340.99475867  .00010567  00000+0  11794-2 0  9999", "line2": "2 31937  99.2561  69.7316 0162921 315.3928  43.4262 14.78022374659842"}}, "geometry": {"type": "Point", "coordinates": [146.9637945341489, -80.30923541979391]}}, {"type": "Feature", "properties": {"norad_id": 31938, "name": "FENGYUN 1C DEB", "group": "fengyun-1c-debris", "lat": 66.34149709783783, "lon": -142.88607569392755, "alt_km": 491.8348479440301, "timestamp": "2025-12-10T21:43:22.372941+00:00", "meta": {"OBJECT_NAME": "FENGYUN 1C DEB", "OBJECT_ID": "1999-025CMP", "EPOCH": "2025-12-10T13:12:28.783296", "MEAN_MOTION": 14.95570671, "ECCENTRICITY": 0.01528368, "INCLINATION": 98.9295, "RA_OF_ASC_NODE": 15.678, "ARG_OF_PERICENTER": 73.1927, "MEAN_ANOMALY": 288.5993, "EPHEMERIS_TYPE": 0, "CLASSIFICATION_TYPE": "U", "NORAD_CAT_ID": 31938, "ELEMENT_SET_NO": 999, "REV_AT_EPOCH": 99103, "BSTAR": 0.00059331353, "MEAN_MOTION_DOT": 8.252e-05, "MEAN_MOTION_DDOT": 0}, "tle": {"line1": "1 31938U 99025CMP 25344.55033314  .00008252  00000+0  59331-3 0  9991", "line2": "2 31938  98.9295  15.6780 0152836  73.1927 288.5993 14.95570671991030"}}, "geometry": {"type": "Point", "coordinates": [-142.88607569392755, 66.34149709783783]}}, {"type": "Feature", "properties": {"norad_id": 31944, "name": "FENGYUN 1C DEB", "group": "fengyun-1c-debris", "lat": 7.973789234496193, "lon": -46.33787336706884, "alt_km": 959.6030150895622, "timestamp": "2025-12-10T21:43:22.372951+00:00", "meta": {"OBJECT_NAME": "FENGYUN 1C DEB", "OBJECT_ID": "1999-025CMV", "EPOCH": "2025-12-05T05:25:34.154400", "MEAN_MOTION": 14.11765981, "ECCENTRICITY": 0.01519652, "INCLINATION": 99.203, "RA_OF_ASC_NODE": 126.5353, "ARG_OF_PERICENTER": 25.3933, "MEAN_ANOMALY": 98.7212, "EPHEMERIS_TYPE": 0, "CLASSIFICATION_TYPE": "U", "NORAD_CAT_ID": 31944, "ELEMENT_SET_NO": 999, "REV_AT_EPOCH": 62804, "BSTAR": 0.00085144569, "MEAN_MOTION_DOT": 1.684e-05, "MEAN_MOTION_DDOT": 0}, "tle": {"line1": "1 31944U 99025CMV 25339.22608975  .00001684  00000+0  85145-3 0  9991", "line2": "2 31944  99.2030 126.5353 0151965  25.3933  98.7212 14.11765981628045"}}, "geometry": {"type": "Point", "coordinates": [-46.33787336706884, 7.973789234496193]}}, {"type": "Feature", "properties": {"norad_id": 31945, "name": "FENGYUN 1C DEB", "group": "fengyun-1c-debris", "lat": 77.00156699192985, "lon": -75.64167771796039, "alt_km": 857.7108305634429, "timestamp": "2025-12-10T21:43:22.372961+00:00", "meta": {"OBJECT_NAME": "FENGYUN 1C DEB", "OBJECT_ID": "1999-025CMW", "EPOCH": "2025-12-05T04:21:02.992896", "MEAN_MOTION": 14.20730618, "ECCENTRICITY": 0.00605162, "INCLINATION": 98.9642, "RA_OF_ASC_NODE": 55.4147, "ARG_OF_PERICENTER": 309.2017, "MEAN_ANOMALY": 50.3794, "EPHEMERIS_TYPE": 0, "CLASSIFICATION_TYPE": "U", "NORAD_CAT_ID": 31945, "ELEMENT_SET_NO": 999, "REV_AT_EPOCH": 95088, "BSTAR": 0.0029640312, "MEAN_MOTION_DOT": 6.47e-05, "MEAN_MOTION_DDOT": 0}, "tle": {"line1": "1 31945U 99025CMW 25339.18128464  .00006470  00000+0  29640-2 0  9992", "line2": "2 31945  98.9642  55.4147 0060516 309.2017  50.3794 14.20730618950888"}}, "geometry": {"type": "Point", "coordinates": [-75.64167771796039, 77.00156699192985]}}, {"type": "Feature", "properties": {"norad_id": 31946, "name": "FENGYUN 1C DEB", "group": "fengyun-1c-debris", "lat": 1.6397639126941455, "lon": 44.87442609925695, "alt_km": 804.3724751648597, "timestamp": "2025-12-10T21:43:22.372971+00:00", "meta": {"OBJECT_NAME": "FENGYUN 1C DEB", "OBJECT_ID": "1999-025CMX", "EPOCH": "2025-12-10T09:50:51.583200", "MEAN_MOTION": 14.16415227, "ECCENTRICITY": 0.00825642, "INCLINATION": 98.8976, "RA_OF_ASC_NODE": 44.6369, "ARG_OF_PERICENTER": 56.6305, "MEAN_ANOMALY": 304.2736, "EPHEMERIS_TYPE": 0, "CLASSIFICATION_TYPE": "U", "NORAD_CAT_ID": 31946, "ELEMENT_SET_NO": 999, "REV_AT_EPOCH": 63975, "BSTAR": 0.0017127269, "MEAN_MOTION_DOT": 3.476e-05, "MEAN_MOTION_DDOT": 0}, "tle": {"line1": "1 31946U 99025CMX 25344.41031925  .00003476  00000+0  17127-2 0  9990", "line2": "2 31946  98.8976  44.6369 0082564  56.6305 304.2736 14.16415227639752"}}, "geometry": {"type": "Point", "coordinates": [44.87442609925695, 1.6397639126941455]}}, {"type": "Feature", "properties": {"norad_id": 31948, "name": "FENGYUN 1C DEB", "group": "fengyun-1c-debris", "lat": -52.39637753242307, "lon": 57.604510758349804, "alt_km": 801.9776656509457, "timestamp": "2025-12-10T21:43:22.372981+00:00", "meta": {"OBJECT_NAME": "FENGYUN 1C DEB", "OBJECT_ID": "1999-025CMZ", "EPOCH": "2025-12-08T09:44:13.179840", "MEAN_MOTION": 14.28248279, "ECCENTRICITY": 0.00237817, "INCLINATION": 99.3918, "RA_OF_ASC_NODE": 42.5089, "ARG_OF_PERICENTER": 35.7447, "MEAN_ANOMALY": 26.9919, "EPHEMERIS_TYPE": 0, "CLASSIFICATION_TYPE": "U", "NORAD_CAT_ID": 31948, "ELEMENT_SET_NO": 999, "REV_AT_EPOCH": 94966, "BSTAR": 0.0021945448, "MEAN_MOTION_DOT": 5.441e-05, "MEAN_MOTION_DDOT": 0}, "tle": {"line1": "1 31948U 99025CMZ 25342.40570810  .00005441  00000+0  21945-2 0  9997", "line2": "2 31948  99.3918  42.5089 0023781  35.7447  26.9919 14.28248279949662"}}, "geometry": {"type": "Point", "coordinates": [57.604510758349804, -52.39637753242307]}}, {"type": "Feature", "properties": {"norad_id": 31949, "name": "FENGYUN 1C DEB", "group": "fengyun-1c-debris", "lat": -22.714328640781748, "lon": 146.8703063512397, "alt_km": 753.9555494730175, "timestamp": "2025-12-10T21:43:22.372992+00:00", "meta": {"OBJECT_NAME": "FENGYUN 1C DEB", "OBJECT_ID": "1999-025CNA", "EPOCH": "2025-11-23T05:03:27.897984", "MEAN_MOTION": 14.1687356, "ECCENTRICITY": 0.01252295, "INCLINATION": 98.5419, "RA_OF_ASC_NODE": 313.4803, "ARG_OF_PERICENTER": 269.0533, "MEAN_ANOMALY": 89.6292, "EPHEMERIS_TYPE": 0, "CLASSIFICATION_TYPE": "U", "NORAD_CAT_ID": 31949, "ELEMENT_SET_NO": 999, "REV_AT_EPOCH": 95228, "BSTAR": 0.00041514195, "MEAN_MOTION_DOT": 8.56e-06, "MEAN_MOTION_DDOT": 0}, "tle": {"line1": "1 31949U 99025CNA 25327.21073956  .00000856  00000+0  41514-3 0  9999", "line2": "2 31949  98.5419 313.4803 0125229 269.0533  89.6292 14.16873560952288"}}, "geometry": {"type": "Point", "coordinates": [146.8703063512397, -22.714328640781748]}}, {"type": "Feature", "properties": {"norad_id": 31952, "name": "FENGYUN 1C DEB", "group": "fengyun-1c-debris", "lat": 58.6694941193558, "lon": -63.11116627275329, "alt_km": 789.4054173296345, "timestamp": "2025-12-10T21:43:22.373002+00:00", "meta": {"OBJECT_NAME": "FENGYUN 1C DEB", "OBJECT_ID": "1999-025CND", "EPOCH": "2025-12-08T14:38:44.812032", "MEAN_MOTION": 14.53470529, "ECCENTRICITY": 0.0114026, "INCLINATION": 98.9558, "RA_OF_ASC_NODE": 99.423, "ARG_OF_PERICENTER": 305.068, "MEAN_ANOMALY": 53.9861, "EPHEMERIS_TYPE": 0, "CLASSIFICATION_TYPE": "U", "NORAD_CAT_ID": 31952, "ELEMENT_SET_NO": 999, "REV_AT_EPOCH": 97149, "BSTAR": 0.00084251, "MEAN_MOTION_DOT": 3.77e-05, "MEAN_MOTION_DDOT": 0}, "tle": {"line1": "1 31952U 99025CND 25342.61024088  .00003770  00000+0  84251-3 0  9999", "line2": "2 31952  98.9558  99.4230 0114026 305.0680  53.9861 14.53470529971491"}}, "geometry": {"type": "Point", "coordinates": [-63.11116627275329, 58.6694941193558]}}]}